[{"OBJECT_NAME":"STARLINK-32676","OBJECT_ID":"2024-249T","EPOCH":"2026-03-09T09:35:54.633696","MEAN_MOTION":15.27568767,"ECCENTRICITY":3.742e-5,"INCLINATION":43.0006,"RA_OF_ASC_NODE":316.1997,"ARG_OF_PERICENTER":22.4031,"MEAN_ANOMALY":337.6837,"EPHEMERIS_TYPE":0,"CLASSIFICATION_TYPE":"U","NORAD_CAT_ID":62426,"ELEMENT_SET_NO":999,"REV_AT_EPOCH":6776,"BSTAR":0.00081741529,"MEAN_MOTION_DOT":0.00022292,"MEAN_MOTION_DDOT":0},{"OBJECT_NAME":"TRANSPORTER-1 OBJECT Z","OBJECT_ID":"2021-006Z","EPOCH":"2026-03-09T22:55:57.522432","MEAN_MOTION":15.30965056,"ECCENTRICITY":0.00100878,"INCLINATION":97.2377,"RA_OF_ASC_NODE":113.4736,"ARG_OF_PERICENTER":179.6869,"MEAN_ANOMALY":180.438,"EPHEMERIS_TYPE":0,"CLASSIFICATION_TYPE":"U","NORAD_CAT_ID":47436,"ELEMENT_SET_NO":999,"REV_AT_EPOCH":28420,"BSTAR":0.00024088983,"MEAN_MOTION_DOT":7.143e-5,"MEAN_MOTION_DDOT":0}]
